{"type": "FeatureCollection", "features": [ {"type": "Feature", "properties": {"norad_id": 66775, "name": "TRANSPORTER-15 DP", "group": "last-30-days", "lat": 74.16014260069979, "lon": -86.16353616159216, "alt_km": 501.2487648507649, "timestamp": "2025-12-20T18:51:30.446938+00:00", "meta": {"OBJECT_NAME": "TRANSPORTER-15 DP", "OBJECT_ID": "2025-276DP", "EPOCH": "2025-12-20T10:29:43.496736", "MEAN_MOTION": 15.18613081, "ECCENTRICITY": 0.00029675, "INCLINATION": 97.4351, "RA_OF_ASC_NODE": 66.0888, "ARG_OF_PERICENTER": 71.6267, "MEAN_ANOMALY": 288.529, "EPHEMERIS_TYPE": 0, "CLASSIFICATION_TYPE": "U", "NORAD_CAT_ID": 66775, "ELEMENT_SET_NO": 999, "REV_AT_EPOCH": 329, "BSTAR": 0.00035167349, "MEAN_MOTION_DOT": 7.212e-05, "MEAN_MOTION_DDOT": 0}, "tle": {"line1": "1 66775U 25276DP  25354.43730899  .00007212  00000+0  35167-3 0  9991", "line2": "2 66775  97.4351  66.0888 0002967  71.6267 288.5290 15.18613081  3293"}}, "geometry": {"type": "Point", "coordinates": [-86.16353616159216, 74.16014260069979]}}, {"type": "Feature", "properties": {"norad_id": 66776, "name": "TRANSPORTER-15 DQ", "group": "last-30-days", "lat": 72.68924874716005, "lon": -88.77165976252418, "alt_km": 501.05487026076935, "timestamp": "2025-12-20T18:51:30.446950+00:00", "meta": {"OBJECT_NAME": "TRANSPORTER-15 DQ", "OBJECT_ID": "2025-276DQ", "EPOCH": "2025-12-20T04:09:46.422144", "MEAN_MOTION": 15.18645533, "ECCENTRICITY": 0.00028932, "INCLINATION": 97.4391, "RA_OF_ASC_NODE": 65.8398, "ARG_OF_PERICENTER": 89.3978, "MEAN_ANOMALY": 270.7587, "EPHEMERIS_TYPE": 0, "CLASSIFICATION_TYPE": "U", "NORAD_CAT_ID": 66776, "ELEMENT_SET_NO": 999, "REV_AT_EPOCH": 325, "BSTAR": 0.00028368482, "MEAN_MOTION_DOT": 5.809e-05, "MEAN_MOTION_DDOT": 0}, "tle": {"line1": "1 66776U 25276DQ  25354.17345396  .00005809  00000+0  28368-3 0  9992", "line2": "2 66776  97.4391  65.8398 0002893  89.3978 270.7587 15.18645533  3259"}}, "geometry": {"type": "Point", "coordinates": [-88.77165976252418, 72.68924874716005]}}, {"type": "Feature", "properties": {"norad_id": 66777, "name": "TRANSPORTER-15 DR", "group": "last-30-days", "lat": 62.43405378816022, "lon": -99.01697121940119, "alt_km": 500.9175618465515, "timestamp": "2025-12-20T18:51:30.446962+00:00", "meta": {"OBJECT_NAME": "TRANSPORTER-15 DR", "OBJECT_ID": "2025-276DR", "EPOCH": "2025-12-20T04:07:00.898752", "MEAN_MOTION": 15.18855004, "ECCENTRICITY": 0.00033399, "INCLINATION": 97.4479, "RA_OF_ASC_NODE": 65.865, "ARG_OF_PERICENTER": 118.61, "MEAN_ANOMALY": 241.5471, "EPHEMERIS_TYPE": 0, "CLASSIFICATION_TYPE": "U", "NORAD_CAT_ID": 66777, "ELEMENT_SET_NO": 999, "REV_AT_EPOCH": 325, "BSTAR": 0.00036690146, "MEAN_MOTION_DOT": 7.581e-05, "MEAN_MOTION_DDOT": 0}, "tle": {"line1": "1 66777U 25276DR  25354.17153818  .00007581  00000+0  36690-3 0  9995", "line2": "2 66777  97.4479  65.8650 0003339 118.6100 241.5471 15.18855004  3251"}}, "geometry": {"type": "Point", "coordinates": [-99.01697121940119, 62.43405378816022]}}, {"type": "Feature", "properties": {"norad_id": 66791, "name": "STARLINK-35867", "group": "last-30-days", "lat": -0.3904099816447236, "lon": -157.13177196555472, "alt_km": 384.27405700639247, "timestamp": "2025-12-20T18:51:30.446973+00:00", "meta": {"OBJECT_NAME": "STARLINK-35867", "OBJECT_ID": "2025-278A", "EPOCH": "2025-12-20T14:00:03.000384", "MEAN_MOTION": 15.6206598, "ECCENTRICITY": 0.00015617, "INCLINATION": 42.9989, "RA_OF_ASC_NODE": 204.4912, "ARG_OF_PERICENTER": 251.9854, "MEAN_ANOMALY": 48.2615, "EPHEMERIS_TYPE": 0, "CLASSIFICATION_TYPE": "U", "NORAD_CAT_ID": 66791, "ELEMENT_SET_NO": 999, "REV_AT_EPOCH": 421, "BSTAR": -0.02434018, "MEAN_MOTION_DOT": -0.01933135, "MEAN_MOTION_DDOT": 0}, "tle": {"line1": "1 66791U 25278A   25354.58336806 -.01933135  00000+0 -24340-1 0  9991", "line2": "2 66791  42.9989 204.4912 0001561 251.9854  48.2615 15.62065980  4216"}}, "geometry": {"type": "Point", "coordinates": [-157.13177196555472, -0.3904099816447236]}}, {"type": "Feature", "properties": {"norad_id": 66792, "name": "STARLINK-35990", "group": "last-30-days", "lat": 0.9173189269612385, "lon": -155.73229092846654, "alt_km": 384.1676115741484, "timestamp": "2025-12-20T18:51:30.446983+00:00", "meta": {"OBJECT_NAME": "STARLINK-35990", "OBJECT_ID": "2025-278B", "EPOCH": "2025-12-20T14:00:03.000384", "MEAN_MOTION": 15.62060566, "ECCENTRICITY": 0.0001549, "INCLINATION": 42.9991, "RA_OF_ASC_NODE": 204.4871, "ARG_OF_PERICENTER": 250.7818, "MEAN_ANOMALY": 51.3863, "EPHEMERIS_TYPE": 0, "CLASSIFICATION_TYPE": "U", "NORAD_CAT_ID": 66792, "ELEMENT_SET_NO": 999, "REV_AT_EPOCH": 421, "BSTAR": -0.024240192, "MEAN_MOTION_DOT": -0.01925759, "MEAN_MOTION_DDOT": 0}, "tle": {"line1": "1 66792U 25278B   25354.58336806 -.01925759  00000+0 -24240-1 0  9994", "line2": "2 66792  42.9991 204.4871 0001549 250.7818  51.3863 15.62060566  4212"}}, "geometry": {"type": "Point", "coordinates": [-155.73229092846654, 0.9173189269612385]}}, {"type": "Feature", "properties": {"norad_id": 66793, "name": "STARLINK-36051", "group": "last-30-days", "lat": 3.529624158396847, "lon": -152.9308964764597, "alt_km": 383.89271196270965, "timestamp": "2025-12-20T18:51:30.446993+00:00", "meta": {"OBJECT_NAME": "STARLINK-36051", "OBJECT_ID": "2025-278C", "EPOCH": "2025-12-20T14:00:03.000384", "MEAN_MOTION": 15.62064444, "ECCENTRICITY": 0.00015347, "INCLINATION": 42.9992, "RA_OF_ASC_NODE": 204.4776, "ARG_OF_PERICENTER": 250.4231, "MEAN_ANOMALY": 55.5794, "EPHEMERIS_TYPE": 0, "CLASSIFICATION_TYPE": "U", "NORAD_CAT_ID": 66793, "ELEMENT_SET_NO": 999, "REV_AT_EPOCH": 412, "BSTAR": -0.024364919, "MEAN_MOTION_DOT": -0.01934744, "MEAN_MOTION_DDOT": 0}, "tle": {"line1": "1 66793U 25278C   25354.58336806 -.01934744  00000+0 -24365-1 0  9997", "line2": "2 66793  42.9992 204.4776 0001534 250.4231  55.5794 15.62064444  4126"}}, "geometry": {"type": "Point", "coordinates": [-152.9308964764597, 3.529624158396847]}}, {"type": "Feature", "properties": {"norad_id": 66794, "name": "STARLINK-36062", "group": "last-30-days", "lat": 2.2234844690350526, "lon": -154.33419880841595, "alt_km": 383.97674451554667, "timestamp": "2025-12-20T18:51:30.447002+00:00", "meta": {"OBJECT_NAME": "STARLINK-36062", "OBJECT_ID": "2025-278D", "EPOCH": "2025-12-20T14:00:03.000384", "MEAN_MOTION": 15.62066591, "ECCENTRICITY": 0.00014912, "INCLINATION": 42.9992, "RA_OF_ASC_NODE": 204.4817, "ARG_OF_PERICENTER": 252.5475, "MEAN_ANOMALY": 51.5352, "EPHEMERIS_TYPE": 0, "CLASSIFICATION_TYPE": "U", "NORAD_CAT_ID": 66794, "ELEMENT_SET_NO": 999, "REV_AT_EPOCH": 421, "BSTAR": -0.024377245, "MEAN_MOTION_DOT": -0.0193572, "MEAN_MOTION_DDOT": 0}, "tle": {"line1": "1 66794U 25278D   25354.58336806 -.01935720  00000+0 -24377-1 0  9996", "line2": "2 66794  42.9992 204.4817 0001491 252.5475  51.5352 15.62066591  4219"}}, "geometry": {"type": "Point", "coordinates": [-154.33419880841595, 2.2234844690350526]}}, {"type": "Feature", "properties": {"norad_id": 66795, "name": "STARLINK-36047", "group": "last-30-days", "lat": 4.83087936998907, "lon": -151.52711362385895, "alt_km": 383.74359040537274, "timestamp": "2025-12-20T18:51:30.447012+00:00", "meta": {"OBJECT_NAME": "STARLINK-36047", "OBJECT_ID": "2025-278E", "EPOCH": "2025-12-20T14:00:03.000384", "MEAN_MOTION": 15.62066144, "ECCENTRICITY": 0.00015291, "INCLINATION": 42.9991, "RA_OF_ASC_NODE": 204.473, "ARG_OF_PERICENTER": 250.2151, "MEAN_ANOMALY": 57.7005, "EPHEMERIS_TYPE": 0, "CLASSIFICATION_TYPE": "U", "NORAD_CAT_ID": 66795, "ELEMENT_SET_NO": 999, "REV_AT_EPOCH": 412, "BSTAR": -0.024345933, "MEAN_MOTION_DOT": -0.01933526, "MEAN_MOTION_DDOT": 0}, "tle": {"line1": "1 66795U 25278E   25354.58336806 -.01933526  00000+0 -24346-1 0  9995", "line2": "2 66795  42.9991 204.4730 0001529 250.2151  57.7005 15.62066144  4128"}}, "geometry": {"type": "Point", "coordinates": [-151.52711362385895, 4.83087936998907]}}, {"type": "Feature", "properties": {"norad_id": 66796, "name": "STARLINK-35964", "group": "last-30-days", "lat": -42.07544160355791, "lon": 125.93913869147086, "alt_km": 329.3578740532321, "timestamp": "2025-12-20T18:51:30.447022+00:00", "meta": {"OBJECT_NAME": "STARLINK-35964", "OBJECT_ID": "2025-278F", "EPOCH": "2025-12-20T13:07:43.320288", "MEAN_MOTION": 15.80935455, "ECCENTRICITY": 0.00023294, "INCLINATION": 42.9913, "RA_OF_ASC_NODE": 203.1277, "ARG_OF_PERICENTER": 249.4477, "MEAN_ANOMALY": 110.6144, "EPHEMERIS_TYPE": 0, "CLASSIFICATION_TYPE": "U", "NORAD_CAT_ID": 66796, "ELEMENT_SET_NO": 999, "REV_AT_EPOCH": 308, "BSTAR": 0.0014213593, "MEAN_MOTION_DOT": 0.00294017, "MEAN_MOTION_DDOT": 0}, "tle": {"line1": "1 66796U 25278F   25354.54702917  .00294017  00000+0  14214-2 0  9998", "line2": "2 66796  42.9913 203.1277 0002329 249.4477 110.6144 15.80935455  3082"}}, "geometry": {"type": "Point", "coordinates": [125.93913869147086, -42.07544160355791]}}, {"type": "Feature", "properties": {"norad_id": 66797, "name": "STARLINK-36099", "group": "last-30-days", "lat": 7.428818803220742, "lon": -148.6967843174773, "alt_km": 383.3823076884364, "timestamp": "2025-12-20T18:51:30.447039+00:00", "meta": {"OBJECT_NAME": "STARLINK-36099", "OBJECT_ID": "2025-278G", "EPOCH": "2025-12-20T14:00:03.000384", "MEAN_MOTION": 15.62064407, "ECCENTRICITY": 0.00015339, "INCLINATION": 42.9992, "RA_OF_ASC_NODE": 204.4634, "ARG_OF_PERICENTER": 253.7324, "MEAN_ANOMALY": 58.0199, "EPHEMERIS_TYPE": 0, "CLASSIFICATION_TYPE": "U", "NORAD_CAT_ID": 66797, "ELEMENT_SET_NO": 999, "REV_AT_EPOCH": 427, "BSTAR": -0.024345341, "MEAN_MOTION_DOT": -0.01933371, "MEAN_MOTION_DDOT": 0}, "tle": {"line1": "1 66797U 25278G   25354.58336806 -.01933371  00000+0 -24345-1 0  9994", "line2": "2 66797  42.9992 204.4634 0001533 253.7324  58.0199 15.62064407  4273"}}, "geometry": {"type": "Point", "coordinates": [-148.6967843174773, 7.428818803220742]}}]}